NORAD_CAT_ID,OBJECT_NAME,OBJECT_TYPE,EPOCH,MEAN_MOTION,ECCENTRICITY,INCLINATION,RA_OF_ASC_NODE,ARG_OF_PERICENTER,MEAN_ANOMALY,BSTAR,MEAN_MOTION_DOT,MEAN_MOTION_DDOT,TLE_LINE0,TLE_LINE1,TLE_LINE2,SEMIMAJOR_AXIS,PERIOD,APOGEE,PERIGEE,DECAYED
56771.0,STARLINK-6339,PAYLOAD,2024-08-02 14:47:46,14.98321307,0.0003039,70.0003,337.2702,270.4203,89.6608,-3.2663e-05,-4.83e-06,0.0,0 STARLINK-6339,1 56771U 23078E   24215.61651117 -.00000483  00000-0 -32663-4 0  9999,2 56771  70.0003 337.2702 0003039 270.4203  89.6608 14.98321307 66170,6950.22,96.108,574.197,569.973,0.0
56771.0,STARLINK-6339,PAYLOAD,2024-08-02 18:00:02,14.98321677,0.0003063,70.0003,336.9339,270.7629,89.3179,-2.5555e-05,-3.98e-06,0.0,0 STARLINK-6339,1 56771U 23078E   24215.75003143 -.00000398  00000-0 -25555-4 0  9991,2 56771  70.0003 336.9339 0003063 270.7629  89.3179 14.98321677 66196,6950.219,96.108,574.212,569.955,0.0
56771.0,STARLINK-6339,PAYLOAD,2024-08-03 11:37:30,14.98331604,0.0003176,69.9999,335.0823,271.8804,88.1991,-3.6251e-05,-5.26e-06,0.0,0 STARLINK-6339,1 56771U 23078E   24216.48438611 -.00000526  00000-0 -36251-4 0  9992,2 56771  69.9999 335.0823 0003176 271.8804  88.1991 14.98331604 66568,6950.188,96.107,574.26,569.846,0.0
56771.0,STARLINK-6339,PAYLOAD,2024-08-03 14:49:47,14.98333109,0.0003254,70.0,334.7461,272.0776,88.001,-4.0355e-05,-5.75e-06,0.0,0 STARLINK-6339,1 56771U 23078E   24216.61790513 -.00000575  00000-0 -40355-4 0  9993,2 56771  70.0000 334.7461 0003254 272.0776  88.0010 14.98333109 66323,6950.183,96.107,574.31,569.787,0.0
56771.0,STARLINK-6339,PAYLOAD,2024-08-03 18:02:02,14.98337407,0.0003006,70.0005,334.409,269.3412,90.7403,4.2785e-05,4.18e-06,0.0,0 STARLINK-6339,1 56771U 23078E   24216.75141997  .00000418  00000-0  42785-4 0  9997,2 56771  70.0005 334.4090 0003006 269.3412  90.7403 14.98337407 66606,6950.17,96.107,574.124,569.946,0.0
56771.0,STARLINK-6339,PAYLOAD,2024-08-04 10:03:22,14.9833944,0.0003144,70.0003,332.7254,273.9845,86.0955,0.000266,3.083e-05,0.0,0 STARLINK-6339,1 56771U 23078E   24217.41900859  .00003083  00000-0  26600-3 0  9999,2 56771  70.0003 332.7254 0003144 273.9845  86.0955 14.98339440 66701,6950.164,96.106,574.214,569.844,0.0
56771.0,STARLINK-6339,PAYLOAD,2024-08-04 14:51:45,14.98347897,0.0003092,70.0004,332.2212,272.875,87.2055,0.00032045,3.734e-05,0.0,0 STARLINK-6339,1 56771U 23078E   24217.61928055  .00003734  00000-0  32045-3 0  9992,2 56771  70.0004 332.2212 0003092 272.8750  87.2055 14.98347897 66479,6950.138,96.106,574.152,569.854,0.0
56771.0,STARLINK-6339,PAYLOAD,2024-08-04 18:04:01,14.98352839,0.0003048,70.0004,331.8841,273.3585,86.7225,0.00036555,4.274e-05,0.0,0 STARLINK-6339,1 56771U 23078E   24217.75279482  .00004274  00000-0  36555-3 0  9990,2 56771  70.0004 331.8841 0003048 273.3585  86.7225 14.98352839 66751,6950.122,96.106,574.106,569.869,0.0
56771.0,STARLINK-6339,PAYLOAD,2024-08-05 00:28:34,14.98339191,0.0002693,70.0008,331.2098,275.003,85.0822,8.0334e-05,8.66e-06,0.0,0 STARLINK-6339,1 56771U 23078E   24218.01984928  .00000866  00000-0  80334-4 0  9996,2 56771  70.0008 331.2098 0002693 275.0030  85.0822 14.98339191 66797,6950.164,96.106,573.901,570.158,0.0
56771.0,STARLINK-6339,PAYLOAD,2024-08-05 11:41:32,14.98329627,0.000259,70.0014,330.0363,253.6045,106.483,-2.5926e-05,-4.02e-06,0.0,0 STARLINK-6339,1 56771U 23078E   24218.48717654 -.00000402  00000-0 -25926-4 0  9991,2 56771  70.0014 330.0363 0002590 253.6045 106.4830 14.98329627 66868,6950.194,96.107,573.859,570.259,0.0
56771.0,STARLINK-6339,PAYLOAD,2024-08-05 18:06:04,14.98325725,0.0002694,70.0015,329.3633,253.8049,106.2814,-6.8665e-05,-9.12e-06,0.0,0 STARLINK-6339,1 56771U 23078E   24218.75421991 -.00000912  00000-0 -68665-4 0  9990,2 56771  70.0015 329.3633 0002694 253.8049 106.2814 14.98325725 66642,6950.206,96.107,573.943,570.199,0.0
56771.0,STARLINK-6339,PAYLOAD,2024-08-06 00:30:37,14.98323937,0.0002692,70.0016,328.6882,266.8826,93.2026,-0.00016724,-2.087e-05,0.0,0 STARLINK-6339,1 56771U 23078E   24219.02126446 -.00002087  00000-0 -16724-3 0  9991,2 56771  70.0016 328.6882 0002692 266.8826  93.2026 14.98323937 66942,6950.212,96.107,573.948,570.206,0.0
56771.0,STARLINK-6339,PAYLOAD,2024-08-06 13:19:41,14.98326961,0.0002776,70.0011,327.3406,264.6909,95.3933,-0.00023718,-2.922e-05,0.0,0 STARLINK-6339,1 56771U 23078E   24219.55534438 -.00002922  00000-0 -23718-3 0  9992,2 56771  70.0011 327.3406 0002776 264.6909  95.3933 14.98326961 66766,6950.202,96.107,573.997,570.138,0.0
56771.0,STARLINK-6339,PAYLOAD,2024-08-06 16:31:57,14.98328494,0.000276,70.0012,327.0038,264.8295,95.255,-0.00021009,-2.599e-05,0.0,0 STARLINK-6339,1 56771U 23078E   24219.68886284 -.00002599  00000-0 -21009-3 0  9996,2 56771  70.0012 327.0038 0002760 264.8295  95.2550 14.98328494 66787,6950.198,96.107,573.981,570.144,0.0
56771.0,STARLINK-6339,PAYLOAD,2024-08-07 11:45:33,14.98327405,0.0002908,70.0008,324.984,268.4687,91.6139,0.00017215,1.962e-05,0.0,0 STARLINK-6339,1 56771U 23078E   24220.48997485  .00001962  00000-0  17215-3 0  9997,2 56771  70.0008 324.9840 0002908 268.4687  91.6139 14.98327405 67165,6950.201,96.107,574.087,570.045,0.0
56771.0,STARLINK-6339,PAYLOAD,2024-08-07 16:33:57,14.98338586,0.0002687,70.0007,324.479,256.843,103.2429,0.00011134,1.236e-05,0.0,0 STARLINK-6339,1 56771U 23078E   24220.69024887  .00001236  00000-0  11134-3 0  9995,2 56771  70.0007 324.4790 0002687 256.8430 103.2429 14.98338586 67191,6950.166,96.106,573.899,570.164,0.0
56771.0,STARLINK-6339,PAYLOAD,2024-08-08 13:23:43,14.98328298,0.0003235,70.0002,322.2895,270.548,89.5308,0.00014932,1.689e-05,0.0,0 STARLINK-6339,1 56771U 23078E   24221.55813733  .00001689  00000-0  14932-3 0  9998,2 56771  70.0002 322.2895 0003235 270.5480  89.5308 14.98328298 67063,6950.198,96.107,574.312,569.815,0.0
56771.0,STARLINK-6339,PAYLOAD,2024-08-08 16:35:58,14.98335131,0.0003077,70.0005,321.9535,267.9576,92.1231,0.00022323,2.572e-05,0.0,0 STARLINK-6339,1 56771U 23078E   24221.69165091  .00002572  00000-0  22323-3 0  9995,2 56771  70.0005 321.9535 0003077 267.9576  92.1231 14.98335131 67343,6950.177,96.107,574.181,569.903,0.0
56771.0,STARLINK-6339,PAYLOAD,2024-08-09 00:36:39,14.98330375,0.0002654,70.0021,321.1108,283.67,76.4163,0.00010951,1.214e-05,0.0,0 STARLINK-6339,1 56771U 23078E   24222.02545847  .00001214  00000-0  10951-3 0  9990,2 56771  70.0021 321.1108 0002654 283.6700  76.4163 14.98330375 67392,6950.192,96.107,573.901,570.212,0.0
56771.0,STARLINK-6339,PAYLOAD,2024-08-09 13:25:44,14.98329887,0.0002771,70.0008,319.7642,272.0677,88.0164,-2.5693e-05,-3.99e-06,0.0,0 STARLINK-6339,1 56771U 23078E   24222.55954155 -.00000399  00000-0 -25693-4 0  9999,2 56771  70.0008 319.7642 0002771 272.0677  88.0164 14.98329887 67215,6950.193,96.107,573.984,570.132,0.0
56771.0,STARLINK-6339,PAYLOAD,2024-08-09 16:38:00,14.98330079,0.0002974,70.001,319.4287,271.3936,88.6882,-1.9721e-05,-3.28e-06,0.0,0 STARLINK-6339,1 56771U 23078E   24222.69306129 -.00000328  00000-0 -19721-4 0  9993,2 56771  70.0010 319.4287 0002974 271.3936  88.6882 14.98330079 67235,6950.193,96.107,574.125,569.991,0.0
56771.0,STARLINK-6339,PAYLOAD,2024-08-10 11:51:37,14.98331397,0.0003042,70.0009,317.4085,274.8559,85.2253,5.1573e-05,5.22e-06,0.0,0 STARLINK-6339,1 56771U 23078E   24223.49417910  .00000522  00000-0  51573-4 0  9998,2 56771  70.0009 317.4085 0003042 274.8559  85.2253 14.98331397 67614,6950.189,96.107,574.168,569.939,0.0
56771.0,STARLINK-6339,PAYLOAD,2024-08-10 13:27:44,14.98336316,0.0002941,70.0008,317.2412,270.7917,89.2906,6.9923e-05,7.42e-06,0.0,0 STARLINK-6339,1 56771U 23078E   24223.56093506  .00000742  00000-0  69923-4 0  9999,2 56771  70.0008 317.2412 0002941 270.7917  89.2906 14.98336316 67362,6950.173,96.107,574.082,569.994,0.0
56771.0,STARLINK-6339,PAYLOAD,2024-08-10 16:40:00,14.98342564,0.0002865,70.001,316.905,269.4466,90.6365,0.00012166,1.359e-05,0.0,0 STARLINK-6339,1 56771U 23078E   24223.69444940  .00001359  00000-0  12166-3 0  9996,2 56771  70.0010 316.9050 0002865 269.4466  90.6365 14.98342564 67646,6950.154,96.106,574.01,570.028,0.0
56771.0,STARLINK-6339,PAYLOAD,2024-08-10 23:04:32,14.98340425,0.0003136,70.0011,316.2292,275.6032,84.477,-1.6111e-05,-2.85e-06,0.0,0 STARLINK-6339,1 56771U 23078E   24223.96149235 -.00000285  00000-0 -16111-4 0  9999,2 56771  70.0011 316.2292 0003136 275.6032  84.4770 14.98340425 67687,6950.161,96.106,574.205,569.846,0.0
56771.0,STARLINK-6339,PAYLOAD,2024-08-11 10:17:30,14.9832264,0.0002734,70.001,315.0522,272.865,87.2197,6.6255e-05,6.98e-06,0.0,0 STARLINK-6339,1 56771U 23078E   24224.42882499  .00000698  00000-0  66255-4 0  9997,2 56771  70.0010 315.0522 0002734 272.8650  87.2197 14.98322640 67758,6950.216,96.107,573.981,570.18,0.0
56771.0,STARLINK-6339,PAYLOAD,2024-08-11 23:06:35,14.98317326,0.0002875,70.0013,313.7071,271.2984,88.7845,-6.4493e-05,-8.62e-06,0.0,0 STARLINK-6339,1 56771U 23078E   24224.96291513 -.00000862  00000-0 -64493-4 0  9994,2 56771  70.0013 313.7071 0002875 271.2984  88.7845 14.98317326 67834,6950.232,96.108,574.095,570.099,0.0
56771.0,STARLINK-6339,PAYLOAD,2024-08-12 11:55:38,14.98344656,0.0002785,70.0012,312.3604,268.8332,91.2508,0.00020005,2.296e-05,0.0,0 STARLINK-6339,1 56771U 23078E   24225.49697172  .00002296  00000-0  20005-3 0  9995,2 56771  70.0012 312.3604 0002785 268.8332  91.2508 14.98344656 67919,6950.148,96.106,573.948,570.077,0.0
56771.0,STARLINK-6339,PAYLOAD,2024-08-12 16:44:01,14.9835919,0.0002695,69.9984,311.8471,258.348,101.7376,0.00013407,1.508e-05,0.0,0 STARLINK-6339,1 56771U 23078E   24225.69723859  .00001508  00000-0  13407-3 0  9992,2 56771  69.9984 311.8471 0002695 258.3480 101.7376 14.98359190 67940,6950.103,96.105,573.841,570.095,0.0
56771.0,STARLINK-6339,PAYLOAD,2024-08-12 23:08:34,14.98347789,0.0002342,70.0008,311.1802,280.0481,80.0413,5.1219e-05,5.19e-06,0.0,0 STARLINK-6339,1 56771U 23078E   24225.96428854  .00000519  00000-0  51219-4 0  9994,2 56771  70.0008 311.1802 0002342 280.0481  80.0413 14.98347789 67989,6950.138,96.106,573.631,570.375,0.0
